start=new Date('2021-10-23T00:00:00.000Z').valueOf();
sats=[{"ARG_OF_PERICENTER":"78.7431","TLE_LINE1":"1 48355U 21038C   21295.43532078  .00001359  00000-0  11012-3 0  9996","TLE_LINE2":"2 48355  53.0570 340.9512 0001374  78.7431 281.3712 15.06394672 25987","REV_AT_EPOCH":"2598","LAUNCH_DATE":"2021-05-04","OBJECT_TYPE":"PAYLOAD","INCLINATION":"53.0570","PERIOD":"95.592","ELEMENT_SET_NO":"999","TIME_SYSTEM":"UTC","MEAN_ELEMENT_THEORY":"SGP4","MEAN_ANOMALY":"281.3712","REF_FRAME":"TEME","COUNTRY_CODE":"US","GP_ID":"187901975","RCS_SIZE":"LARGE","NORAD_CAT_ID":"48355","ECCENTRICITY":"0.00013740","MEAN_MOTION_DOT":"0.00001359","EPOCH":"2021-10-22T10:26:51.715392","APOAPSIS":"548.181","OBJECT_NAME":"STARLINK-2635","EPHEMERIS_TYPE":"0","BSTAR":"0.00011012000000","FILE":"3178676","MEAN_MOTION":"15.06394672","OBJECT_ID":"2021-038C","RA_OF_ASC_NODE":"340.9512","SEMIMAJOR_AXIS":"6925.365","MEAN_MOTION_DDOT":"0.0000000000000","PERIAPSIS":"546.278","CLASSIFICATION_TYPE":"U","DECAY_DATE":null,"CENTER_NAME":"EARTH","SITE":"AFETR"},{"MEAN_MOTION_DOT":"-0.00000072","EPOCH":"2021-10-22T15:08:12.321888","OBJECT_NAME":"STARLINK-2637","APOAPSIS":"548.342","RA_OF_ASC_NODE":"340.0243","EPHEMERIS_TYPE":"0","FILE":"3179071","MEAN_MOTION":"15.06394824","BSTAR":"0.00001408900000","OBJECT_ID":"2021-038D","SEMIMAJOR_AXIS":"6925.364","MEAN_MOTION_DDOT":"0.0000000000000","SITE":"AFETR","CENTER_NAME":"EARTH","PERIAPSIS":"546.117","CLASSIFICATION_TYPE":"U","DECAY_DATE":null,"TLE_LINE1":"1 48356U 21038D   21295.63069817 -.00000072  00000-0  14089-4 0  9995","TLE_LINE2":"2 48356  53.0660 340.0243 0001606  62.9954 297.1199 15.06394824 26011","ARG_OF_PERICENTER":"62.9954","OBJECT_TYPE":"PAYLOAD","LAUNCH_DATE":"2021-05-04","INCLINATION":"53.0660","PERIOD":"95.592","REV_AT_EPOCH":"2601","MEAN_ELEMENT_THEORY":"SGP4","ELEMENT_SET_NO":"999","TIME_SYSTEM":"UTC","ECCENTRICITY":"0.00016060","MEAN_ANOMALY":"297.1199","REF_FRAME":"TEME","COUNTRY_CODE":"US","GP_ID":"187934075","RCS_SIZE":"LARGE","NORAD_CAT_ID":"48356"},{"REV_AT_EPOCH":"2601","LAUNCH_DATE":"2021-05-04","OBJECT_TYPE":"PAYLOAD","INCLINATION":"53.0563","PERIOD":"95.592","ARG_OF_PERICENTER":"86.7168","TLE_LINE1":"1 48357U 21038E   21295.62700396 -.00000203  00000-0  52391-5 0  9994","TLE_LINE2":"2 48357  53.0563 340.0827 0001141  86.7168 273.3951 15.06397681 26013","MEAN_ANOMALY":"273.3951","REF_FRAME":"TEME","COUNTRY_CODE":"US","RCS_SIZE":"LARGE","GP_ID":"187934825","NORAD_CAT_ID":"48357","ECCENTRICITY":"0.00011410","TIME_SYSTEM":"UTC","MEAN_ELEMENT_THEORY":"SGP4","ELEMENT_SET_NO":"999","EPHEMERIS_TYPE":"0","FILE":"3179071","BSTAR":"0.00000523910000","MEAN_MOTION":"15.06397681","OBJECT_ID":"2021-038E","RA_OF_ASC_NODE":"340.0827","MEAN_MOTION_DOT":"-0.00000203","EPOCH":"2021-10-22T15:02:53.142144","OBJECT_NAME":"STARLINK-2636","APOAPSIS":"548.011","PERIAPSIS":"546.430","CLASSIFICATION_TYPE":"U","DECAY_DATE":null,"CENTER_NAME":"EARTH","SITE":"AFETR","MEAN_MOTION_DDOT":"0.0000000000000","SEMIMAJOR_AXIS":"6925.356"},{"LAUNCH_DATE":"2021-05-04","OBJECT_TYPE":"PAYLOAD","INCLINATION":"53.0532","PERIOD":"95.593","REV_AT_EPOCH":"2597","TLE_LINE1":"1 48358U 21038F   21295.42427317  .00001550  00000-0  12293-3 0  9992","TLE_LINE2":"2 48358  53.0532 341.0039 0001199  76.5646 283.5477 15.06391251 25974","ARG_OF_PERICENTER":"76.5646","ECCENTRICITY":"0.00011990","MEAN_ANOMALY":"283.5477","REF_FRAME":"TEME","COUNTRY_CODE":"US","GP_ID":"187902728","RCS_SIZE":"LARGE","NORAD_CAT_ID":"48358","TIME_SYSTEM":"UTC","ELEMENT_SET_NO":"999","MEAN_ELEMENT_THEORY":"SGP4","RA_OF_ASC_NODE":"341.0039","EPHEMERIS_TYPE":"0","FILE":"3178676","BSTAR":"0.00012293000000","MEAN_MOTION":"15.06391251","OBJECT_ID":"2021-038F","EPOCH":"2021-10-22T10:10:57.201888","MEAN_MOTION_DOT":"0.00001550","OBJECT_NAME":"STARLINK-2624","APOAPSIS":"548.071","SITE":"AFETR","CENTER_NAME":"EARTH","PERIAPSIS":"546.410","CLASSIFICATION_TYPE":"U","DECAY_DATE":null,"MEAN_MOTION_DDOT":"0.0000000000000","SEMIMAJOR_AXIS":"6925.375"},{"CLASSIFICATION_TYPE":"U","DECAY_DATE":null,"PERIAPSIS":"546.342","CENTER_NAME":"EARTH","SITE":"AFETR","SEMIMAJOR_AXIS":"6925.366","MEAN_MOTION_DDOT":"0.0000000000000","OBJECT_ID":"2021-038G","FILE":"3179071","MEAN_MOTION":"15.06394353","BSTAR":"-0.00000105410000","EPHEMERIS_TYPE":"0","RA_OF_ASC_NODE":"340.1145","OBJECT_NAME":"STARLINK-2628","APOAPSIS":"548.119","MEAN_MOTION_DOT":"-0.00000297","EPOCH":"2021-10-22T14:52:14.794752","GP_ID":"187933823","RCS_SIZE":"LARGE","NORAD_CAT_ID":"48359","COUNTRY_CODE":"US","REF_FRAME":"TEME","MEAN_ANOMALY":"278.1384","ECCENTRICITY":"0.00012830","ELEMENT_SET_NO":"999","TIME_SYSTEM":"UTC","MEAN_ELEMENT_THEORY":"SGP4","REV_AT_EPOCH":"2600","PERIOD":"95.592","INCLINATION":"53.0566","LAUNCH_DATE":"2021-05-04","OBJECT_TYPE":"PAYLOAD","ARG_OF_PERICENTER":"81.9750","TLE_LINE2":"2 48359  53.0566 340.1145 0001283  81.9750 278.1384 15.06394353 26008","TLE_LINE1":"1 48359U 21038G   21295.61961568 -.00000297  00000-0 -10541-5 0  9990"},{"REV_AT_EPOCH":"2600","LAUNCH_DATE":"2021-05-04","OBJECT_TYPE":"PAYLOAD","INCLINATION":"53.0559","PERIOD":"95.593","ARG_OF_PERICENTER":"68.7267","TLE_LINE1":"1 48360U 21038H   21295.61594866 -.00000129  00000-0  10214-4 0  9994","TLE_LINE2":"2 48360  53.0559 340.1248 0001185  68.7267 291.3848 15.06386947 26005","MEAN_ANOMALY":"291.3848","REF_FRAME":"TEME","COUNTRY_CODE":"US","RCS_SIZE":"LARGE","GP_ID":"187934575","NORAD_CAT_ID":"48360","ECCENTRICITY":"0.00011850","TIME_SYSTEM":"UTC","MEAN_ELEMENT_THEORY":"SGP4","ELEMENT_SET_NO":"999","EPHEMERIS_TYPE":"0","BSTAR":"0.00001021400000","FILE":"3179071","MEAN_MOTION":"15.06386947","OBJECT_ID":"2021-038H","RA_OF_ASC_NODE":"340.1248","MEAN_MOTION_DOT":"-0.00000129","EPOCH":"2021-10-22T14:46:57.964224","APOAPSIS":"548.074","OBJECT_NAME":"STARLINK-2622","PERIAPSIS":"546.433","DECAY_DATE":null,"CLASSIFICATION_TYPE":"U","CENTER_NAME":"EARTH","SITE":"AFETR","MEAN_MOTION_DDOT":"0.0000000000000","SEMIMAJOR_AXIS":"6925.389"},{"APOAPSIS":"548.076","OBJECT_NAME":"STARLINK-2591","MEAN_MOTION_DOT":"0.00001310","EPOCH":"2021-10-22T11:30:33.250464","FILE":"3178676","BSTAR":"0.00010681000000","MEAN_MOTION":"15.06395336","OBJECT_ID":"2021-038J","EPHEMERIS_TYPE":"0","RA_OF_ASC_NODE":"340.8234","MEAN_MOTION_DDOT":"0.0000000000000","SEMIMAJOR_AXIS":"6925.363","PERIAPSIS":"546.379","CLASSIFICATION_TYPE":"U","DECAY_DATE":null,"SITE":"AFETR","CENTER_NAME":"EARTH","ARG_OF_PERICENTER":"87.4355","TLE_LINE2":"2 48361  53.0556 340.8234 0001225  87.4355 272.6774 15.06395336 25984","TLE_LINE1":"1 48361U 21038J   21295.47955151  .00001310  00000-0  10681-3 0  9996","REV_AT_EPOCH":"2598","INCLINATION":"53.0556","PERIOD":"95.592","OBJECT_TYPE":"PAYLOAD","LAUNCH_DATE":"2021-05-04","ELEMENT_SET_NO":"999","TIME_SYSTEM":"UTC","MEAN_ELEMENT_THEORY":"SGP4","COUNTRY_CODE":"US","RCS_SIZE":"LARGE","GP_ID":"187902478","NORAD_CAT_ID":"48361","MEAN_ANOMALY":"272.6774","REF_FRAME":"TEME","ECCENTRICITY":"0.00012250"},{"SITE":"AFETR","CENTER_NAME":"EARTH","PERIAPSIS":"551.546","CLASSIFICATION_TYPE":"U","DECAY_DATE":null,"SEMIMAJOR_AXIS":"6930.395","MEAN_MOTION_DDOT":"0.0000000000000","RA_OF_ASC_NODE":"340.8143","MEAN_MOTION":"15.04755098","FILE":"3178676","BSTAR":"0.00000206210000","OBJECT_ID":"2021-038K","EPHEMERIS_TYPE":"0","OBJECT_NAME":"STARLINK-2578","APOAPSIS":"552.973","EPOCH":"2021-10-22T10:16:52.518432","MEAN_MOTION_DOT":"-0.00000247","ECCENTRICITY":"0.00010300","COUNTRY_CODE":"US","RCS_SIZE":"LARGE","GP_ID":"187903228","NORAD_CAT_ID":"48362","MEAN_ANOMALY":"278.8128","REF_FRAME":"TEME","MEAN_ELEMENT_THEORY":"SGP4","TIME_SYSTEM":"UTC","ELEMENT_SET_NO":"999","INCLINATION":"53.0558","PERIOD":"95.697","OBJECT_TYPE":"PAYLOAD","LAUNCH_DATE":"2021-05-04","REV_AT_EPOCH":"2598","TLE_LINE2":"2 48362  53.0558 340.8143 0001030  81.2977 278.8128 15.04755098 25986","TLE_LINE1":"1 48362U 21038K   21295.42838563 -.00000247  00000-0  20621-5 0  9995","ARG_OF_PERICENTER":"81.2977"},{"BSTAR":"-0.00005979800000","FILE":"3178676","MEAN_MOTION":"15.06386307","OBJECT_ID":"2021-038L","EPHEMERIS_TYPE":"0","RA_OF_ASC_NODE":"336.1422","APOAPSIS":"548.188","OBJECT_NAME":"STARLINK-2626","MEAN_MOTION_DOT":"-0.00001172","EPOCH":"2021-10-22T09:21:12.248640","PERIAPSIS":"546.323","CLASSIFICATION_TYPE":"U","DECAY_DATE":null,"SITE":"AFETR","CENTER_NAME":"EARTH","SEMIMAJOR_AXIS":"6925.391","MEAN_MOTION_DDOT":"0.0000000000000","REV_AT_EPOCH":"2604","INCLINATION":"53.0566","PERIOD":"95.593","OBJECT_TYPE":"PAYLOAD","LAUNCH_DATE":"2021-05-04","ARG_OF_PERICENTER":"92.6401","TLE_LINE2":"2 48363  53.0566 336.1422 0001346  92.6401 267.4742 15.06386307 26041","TLE_LINE1":"1 48363U 21038L   21295.38972510 -.00001172  00000-0 -59798-4 0  9997","COUNTRY_CODE":"US","RCS_SIZE":"LARGE","GP_ID":"187901976","NORAD_CAT_ID":"48363","MEAN_ANOMALY":"267.4742","REF_FRAME":"TEME","ECCENTRICITY":"0.00013460","TIME_SYSTEM":"UTC","ELEMENT_SET_NO":"999","MEAN_ELEMENT_THEORY":"SGP4"},{"SEMIMAJOR_AXIS":"6925.381","MEAN_MOTION_DDOT":"0.0000000000000","SITE":"AFETR","CENTER_NAME":"EARTH","PERIAPSIS":"546.481","DECAY_DATE":null,"CLASSIFICATION_TYPE":"U","APOAPSIS":"548.011","OBJECT_NAME":"STARLINK-2611","MEAN_MOTION_DOT":"0.00001349","EPOCH":"2021-10-22T09:14:31.645536","RA_OF_ASC_NODE":"336.1637","FILE":"3178676","BSTAR":"0.00010949000000","MEAN_MOTION":"15.06389433","OBJECT_ID":"2021-038M","EPHEMERIS_TYPE":"0","MEAN_ELEMENT_THEORY":"SGP4","ELEMENT_SET_NO":"999","TIME_SYSTEM":"UTC","ECCENTRICITY":"0.00011050","COUNTRY_CODE":"US","GP_ID":"187901727","RCS_SIZE":"LARGE","NORAD_CAT_ID":"48364","MEAN_ANOMALY":"280.2869","REF_FRAME":"TEME","TLE_LINE2":"2 48364  53.0568 336.1637 0001105  79.8244 280.2869 15.06389433 26043","TLE_LINE1":"1 48364U 21038M   21295.38508849  .00001349  00000-0  10949-3 0  9996","ARG_OF_PERICENTER":"79.8244","INCLINATION":"53.0568","PERIOD":"95.593","OBJECT_TYPE":"PAYLOAD","LAUNCH_DATE":"2021-05-04","REV_AT_EPOCH":"2604"}];
